{
  "type": "FeatureCollection",
  "features": [
    {
      "type": "Feature",
      "properties": {
        "norad_id": 32275,
        "name": "COSMOS 2433 (720)",
        "group": "glo-ops",
        "lat": -2.521161610335511,
        "lon": 142.856426671181,
        "alt_km": 19127.215102705562,
        "timestamp": "2025-12-26T22:28:06.045165+00:00",
        "meta_object_name": "COSMOS 2433 (720)",
        "meta_object_id": "2007-052A",
        "meta_epoch": "2025-12-26T05:29:12.755904",
        "meta_mean_motion": 2.13104171,
        "meta_eccentricity": 0.00050813,
        "meta_inclination": 65.6759,
        "meta_ra_of_asc_node": 321.753,
        "meta_arg_of_pericenter": 257.4758,
        "meta_mean_anomaly": 102.4712,
        "meta_ephemeris_type": 0,
        "meta_classification_type": "U",
        "meta_norad_cat_id": 32275,
        "meta_element_set_no": 999,
        "meta_rev_at_epoch": 14137,
        "meta_bstar": 0,
        "meta_mean_motion_dot": -3.3e-07,
        "meta_mean_motion_ddot": 0,
        "tle_line1": "1 32275U 07052A   25360.22861986 -.00000033  00000+0  00000+0 0  9996",
        "tle_line2": "2 32275  65.6759 321.7530 0005081 257.4758 102.4712  2.13104171141375"
      },
      "geometry": {
        "type": "Point",
        "coordinates": [
          142.856426671181,
          -2.521161610335511
        ]
      }
    },
    {
      "type": "Feature",
      "properties": {
        "norad_id": 32276,
        "name": "COSMOS 2432 (719)",
        "group": "glo-ops",
        "lat": 46.50277595405161,
        "lon": 113.41391702927457,
        "alt_km": 19153.35912529978,
        "timestamp": "2025-12-26T22:28:06.045189+00:00",
        "meta_object_name": "COSMOS 2432 (719)",
        "meta_object_id": "2007-052B",
        "meta_epoch": "2025-12-26T12:56:48.624288",
        "meta_mean_motion": 2.13103372,
        "meta_eccentricity": 0.00114143,
        "meta_inclination": 65.6918,
        "meta_ra_of_asc_node": 321.8672,
        "meta_arg_of_pericenter": 315.0797,
        "meta_mean_anomaly": 227.7528,
        "meta_ephemeris_type": 0,
        "meta_classification_type": "U",
        "meta_norad_cat_id": 32276,
        "meta_element_set_no": 999,
        "meta_rev_at_epoch": 14140,
        "meta_bstar": 0,
        "meta_mean_motion_dot": -3.4e-07,
        "meta_mean_motion_ddot": 0,
        "tle_line1": "1 32276U 07052B   25360.53945167 -.00000034  00000+0  00000+0 0  9996",
        "tle_line2": "2 32276  65.6918 321.8672 0011414 315.0797 227.7528  2.13103372141404"
      },
      "geometry": {
        "type": "Point",
        "coordinates": [
          113.41391702927457,
          46.50277595405161
        ]
      }
    },
    {
      "type": "Feature",
      "properties": {
        "norad_id": 32393,
        "name": "COSMOS 2434 (721)",
        "group": "glo-ops",
        "lat": 59.66201294302363,
        "lon": -106.92882720732987,
        "alt_km": 19111.119830232743,
        "timestamp": "2025-12-26T22:28:06.045204+00:00",
        "meta_object_name": "COSMOS 2434 (721)",
        "meta_object_id": "2007-065A",
        "meta_epoch": "2025-12-26T03:18:00.211680",
        "meta_mean_motion": 2.13101396,
        "meta_eccentricity": 0.00048072,
        "meta_inclination": 64.3159,
        "meta_ra_of_asc_node": 197.7509,
        "meta_arg_of_pericenter": 72.2168,
        "meta_mean_anomaly": 108.4046,
        "meta_ephemeris_type": 0,
        "meta_classification_type": "U",
        "meta_norad_cat_id": 32393,
        "meta_element_set_no": 999,
        "meta_rev_at_epoch": 14008,
        "meta_bstar": 0,
        "meta_mean_motion_dot": 1.11e-06,
        "meta_mean_motion_ddot": 0,
        "tle_line1": "1 32393U 07065A   25360.13750245  .00000111  00000+0  00000+0 0  9992",
        "tle_line2": "2 32393  64.3159 197.7509 0004807  72.2168 108.4046  2.13101396140085"
      },
      "geometry": {
        "type": "Point",
        "coordinates": [
          -106.92882720732987,
          59.66201294302363
        ]
      }
    },
    {
      "type": "Feature",
      "properties": {
        "norad_id": 32395,
        "name": "COSMOS 2436 (723)",
        "group": "glo-ops",
        "lat": -23.53353848641933,
        "lon": 29.895351629316405,
        "alt_km": 19177.11472885826,
        "timestamp": "2025-12-26T22:28:06.045217+00:00",
        "meta_object_name": "COSMOS 2436 (723)",
        "meta_object_id": "2007-065C",
        "meta_epoch": "2025-12-26T09:51:08.082144",
        "meta_mean_motion": 2.13100172,
        "meta_eccentricity": 0.00178128,
        "meta_inclination": 64.3246,
        "meta_ra_of_asc_node": 197.8121,
        "meta_arg_of_pericenter": 10.2944,
        "meta_mean_anomaly": 152.7872,
        "meta_ephemeris_type": 0,
        "meta_classification_type": "U",
        "meta_norad_cat_id": 32395,
        "meta_element_set_no": 999,
        "meta_rev_at_epoch": 14004,
        "meta_bstar": 0,
        "meta_mean_motion_dot": 1.14e-06,
        "meta_mean_motion_ddot": 0,
        "tle_line1": "1 32395U 07065C   25360.41051021  .00000114  00000+0  00000+0 0  9994",
        "tle_line2": "2 32395  64.3246 197.8121 0017812  10.2944 152.7872  2.13100172140045"
      },
      "geometry": {
        "type": "Point",
        "coordinates": [
          29.895351629316405,
          -23.53353848641933
        ]
      }
    },
    {
      "type": "Feature",
      "properties": {
        "norad_id": 36111,
        "name": "COSMOS 2456 (730)",
        "group": "glo-ops",
        "lat": -44.31087270529738,
        "lon": -75.95423072496216,
        "alt_km": 19131.05714365882,
        "timestamp": "2025-12-26T22:28:06.045230+00:00",
        "meta_object_name": "COSMOS 2456 (730)",
        "meta_object_id": "2009-070A",
        "meta_epoch": "2025-12-26T06:16:15.549312",
        "meta_mean_motion": 2.13103733,
        "meta_eccentricity": 0.0003681,
        "meta_inclination": 64.907,
        "meta_ra_of_asc_node": 76.8759,
        "meta_arg_of_pericenter": 294.867,
        "meta_mean_anomaly": 137.8789,
        "meta_ephemeris_type": 0,
        "meta_classification_type": "U",
        "meta_norad_cat_id": 36111,
        "meta_element_set_no": 999,
        "meta_rev_at_epoch": 12474,
        "meta_bstar": 0,
        "meta_mean_motion_dot": -8e-08,
        "meta_mean_motion_ddot": 0,
        "tle_line1": "1 36111U 09070A   25360.26129108 -.00000008  00000+0  00000+0 0  9990",
        "tle_line2": "2 36111  64.9070  76.8759 0003681 294.8670 137.8789  2.13103733124740"
      },
      "geometry": {
        "type": "Point",
        "coordinates": [
          -75.95423072496216,
          -44.31087270529738
        ]
      }
    },
    {
      "type": "Feature",
      "properties": {
        "norad_id": 36112,
        "name": "COSMOS 2457 (733)",
        "group": "glo-ops",
        "lat": -0.49814923140586836,
        "lon": 76.47838301845029,
        "alt_km": 19141.403485151037,
        "timestamp": "2025-12-26T22:28:06.045242+00:00",
        "meta_object_name": "COSMOS 2457 (733)",
        "meta_object_id": "2009-070B",
        "meta_epoch": "2025-12-26T13:03:04.060800",
        "meta_mean_motion": 2.13101072,
        "meta_eccentricity": 0.0004395,
        "meta_inclination": 64.8927,
        "meta_ra_of_asc_node": 76.7135,
        "meta_arg_of_pericenter": 164.2484,
        "meta_mean_anomaly": 254.2411,
        "meta_ephemeris_type": 0,
        "meta_classification_type": "U",
        "meta_norad_cat_id": 36112,
        "meta_element_set_no": 999,
        "meta_rev_at_epoch": 12475,
        "meta_bstar": 0,
        "meta_mean_motion_dot": -1e-07,
        "meta_mean_motion_ddot": 0,
        "tle_line1": "1 36112U 09070B   25360.54379700 -.00000010  00000+0  00000+0 0  9990",
        "tle_line2": "2 36112  64.8927  76.7135 0004395 164.2484 254.2411  2.13101072124755"
      },
      "geometry": {
        "type": "Point",
        "coordinates": [
          76.47838301845029,
          -0.49814923140586836
        ]
      }
    },
    {
      "type": "Feature",
      "properties": {
        "norad_id": 36402,
        "name": "COSMOS 2460 (732)",
        "group": "glo-ops",
        "lat": -0.6917985598548252,
        "lon": -40.034223860185215,
        "alt_km": 19128.54722208815,
        "timestamp": "2025-12-26T22:28:06.045254+00:00",
        "meta_object_name": "COSMOS 2460 (732)",
        "meta_object_id": "2010-007C",
        "meta_epoch": "2025-12-25T05:13:15.714336",
        "meta_mean_motion": 2.13106358,
        "meta_eccentricity": 0.00024876,
        "meta_inclination": 65.5229,
        "meta_ra_of_asc_node": 320.3522,
        "meta_arg_of_pericenter": 284.3328,
        "meta_mean_anomaly": 196.3839,
        "meta_ephemeris_type": 0,
        "meta_classification_type": "U",
        "meta_norad_cat_id": 36402,
        "meta_element_set_no": 999,
        "meta_rev_at_epoch": 12302,
        "meta_bstar": 0,
        "meta_mean_motion_dot": -3.2e-07,
        "meta_mean_motion_ddot": 0,
        "tle_line1": "1 36402U 10007C   25359.21754299 -.00000032  00000+0  00000+0 0  9990",
        "tle_line2": "2 36402  65.5229 320.3522 0002487 284.3328 196.3839  2.13106358123020"
      },
      "geometry": {
        "type": "Point",
        "coordinates": [
          -40.034223860185215,
          -0.6917985598548252
        ]
      }
    }
  ]
}